{"type": "FeatureCollection", "features": [ {"type": "Feature", "properties": {"norad_id": 30892, "name": "FENGYUN 1C DEB", "group": "fengyun-1c-debris", "lat": -80.18336631759293, "lon": 20.99090698490837, "alt_km": 845.9714341284425, "timestamp": "2025-12-22T22:44:21.254850+00:00", "meta": {"OBJECT_NAME": "FENGYUN 1C DEB", "OBJECT_ID": "1999-025AYE", "EPOCH": "2025-12-13T14:04:34.549536", "MEAN_MOTION": 14.18924802, "ECCENTRICITY": 0.00379168, "INCLINATION": 99.663, "RA_OF_ASC_NODE": 290.842, "ARG_OF_PERICENTER": 186.6804, "MEAN_ANOMALY": 173.3868, "EPHEMERIS_TYPE": 0, "CLASSIFICATION_TYPE": "U", "NORAD_CAT_ID": 30892, "ELEMENT_SET_NO": 999, "REV_AT_EPOCH": 64315, "BSTAR": 0.00057005886, "MEAN_MOTION_DOT": 1.145e-05, "MEAN_MOTION_DDOT": 0}, "tle": {"line1": "1 30892U 99025AYE 25347.58651099  .00001145  00000+0  57006-3 0  9992", "line2": "2 30892  99.6630 290.8420 0037916 186.6804 173.3868 14.18924802643155"}}, "geometry": {"type": "Point", "coordinates": [20.99090698490837, -80.18336631759293]}}, {"type": "Feature", "properties": {"norad_id": 30893, "name": "FENGYUN 1C DEB", "group": "fengyun-1c-debris", "lat": 18.71053574100663, "lon": -154.1316468589432, "alt_km": 933.593544664498, "timestamp": "2025-12-22T22:44:21.254861+00:00", "meta": {"OBJECT_NAME": "FENGYUN 1C DEB", "OBJECT_ID": "1999-025AYF", "EPOCH": "2025-12-18T08:03:40.157280", "MEAN_MOTION": 13.9408223, "ECCENTRICITY": 0.03091633, "INCLINATION": 98.2558, "RA_OF_ASC_NODE": 18.9197, "ARG_OF_PERICENTER": 77.2706, "MEAN_ANOMALY": 348.8675, "EPHEMERIS_TYPE": 0, "CLASSIFICATION_TYPE": "U", "NORAD_CAT_ID": 30893, "ELEMENT_SET_NO": 999, "REV_AT_EPOCH": 94963, "BSTAR": 0.00050651987, "MEAN_MOTION_DOT": 9.62e-06, "MEAN_MOTION_DDOT": 0}, "tle": {"line1": "1 30893U 99025AYF 25352.33588145  .00000962  00000+0  50652-3 0  9999", "line2": "2 30893  98.2558  18.9197 0309163  77.2706 348.8675 13.94082230949632"}}, "geometry": {"type": "Point", "coordinates": [-154.1316468589432, 18.71053574100663]}}, {"type": "Feature", "properties": {"norad_id": 30895, "name": "FENGYUN 1C DEB", "group": "fengyun-1c-debris", "lat": -15.744007858503718, "lon": 67.96499721957996, "alt_km": 841.7337623355015, "timestamp": "2025-12-22T22:44:21.254871+00:00", "meta": {"OBJECT_NAME": "FENGYUN 1C DEB", "OBJECT_ID": "1999-025AYH", "EPOCH": "2025-12-20T03:51:08.120160", "MEAN_MOTION": 14.31562737, "ECCENTRICITY": 0.02182445, "INCLINATION": 98.7182, "RA_OF_ASC_NODE": 62.6855, "ARG_OF_PERICENTER": 102.3829, "MEAN_ANOMALY": 289.3937, "EPHEMERIS_TYPE": 0, "CLASSIFICATION_TYPE": "U", "NORAD_CAT_ID": 30895, "ELEMENT_SET_NO": 999, "REV_AT_EPOCH": 97899, "BSTAR": 0.00020458307, "MEAN_MOTION_DOT": 6.58e-06, "MEAN_MOTION_DDOT": 0}, "tle": {"line1": "1 30895U 99025AYH 25354.16051065  .00000658  00000+0  20458-3 0  9993", "line2": "2 30895  98.7182  62.6855 0218244 102.3829 289.3937 14.31562737978992"}}, "geometry": {"type": "Point", "coordinates": [67.96499721957996, -15.744007858503718]}}, {"type": "Feature", "properties": {"norad_id": 30898, "name": "FENGYUN 1C DEB", "group": "fengyun-1c-debris", "lat": -66.50618441968464, "lon": 68.99552860917852, "alt_km": 530.5325363614847, "timestamp": "2025-12-22T22:44:21.254882+00:00", "meta": {"OBJECT_NAME": "FENGYUN 1C DEB", "OBJECT_ID": "1999-025AYL", "EPOCH": "2025-12-22T12:11:50.527680", "MEAN_MOTION": 15.23391231, "ECCENTRICITY": 0.00414111, "INCLINATION": 99.025, "RA_OF_ASC_NODE": 269.9157, "ARG_OF_PERICENTER": 80.8144, "MEAN_ANOMALY": 279.7769, "EPHEMERIS_TYPE": 0, "CLASSIFICATION_TYPE": "U", "NORAD_CAT_ID": 30898, "ELEMENT_SET_NO": 999, "REV_AT_EPOCH": 66520, "BSTAR": 0.0032272297, "MEAN_MOTION_DOT": 0.00079299, "MEAN_MOTION_DDOT": 0}, "tle": {"line1": "1 30898U 99025AYL 25356.50822370  .00079299  00000+0  32272-2 0  9994", "line2": "2 30898  99.0250 269.9157 0041411  80.8144 279.7769 15.23391231665206"}}, "geometry": {"type": "Point", "coordinates": [68.99552860917852, -66.50618441968464]}}, {"type": "Feature", "properties": {"norad_id": 30899, "name": "FENGYUN 1C DEB", "group": "fengyun-1c-debris", "lat": 49.37708488153819, "lon": 85.92790896116011, "alt_km": 789.1554824574332, "timestamp": "2025-12-22T22:44:21.254892+00:00", "meta": {"OBJECT_NAME": "FENGYUN 1C DEB", "OBJECT_ID": "1999-025AYM", "EPOCH": "2025-12-22T12:39:57.136896", "MEAN_MOTION": 14.33729751, "ECCENTRICITY": 0.00306026, "INCLINATION": 99.1768, "RA_OF_ASC_NODE": 254.6206, "ARG_OF_PERICENTER": 262.1688, "MEAN_ANOMALY": 222.6158, "EPHEMERIS_TYPE": 0, "CLASSIFICATION_TYPE": "U", "NORAD_CAT_ID": 30899, "ELEMENT_SET_NO": 999, "REV_AT_EPOCH": 96795, "BSTAR": 0.0023049821, "MEAN_MOTION_DOT": 6.39e-05, "MEAN_MOTION_DDOT": 0}, "tle": {"line1": "1 30899U 99025AYM 25356.52774464  .00006390  00000+0  23050-2 0  9993", "line2": "2 30899  99.1768 254.6206 0030602 262.1688 222.6158 14.33729751967954"}}, "geometry": {"type": "Point", "coordinates": [85.92790896116011, 49.37708488153819]}}, {"type": "Feature", "properties": {"norad_id": 30903, "name": "FENGYUN 1C DEB", "group": "fengyun-1c-debris", "lat": 14.56353836853379, "lon": -119.6954966706433, "alt_km": 857.9677088743256, "timestamp": "2025-12-22T22:44:21.254902+00:00", "meta": {"OBJECT_NAME": "FENGYUN 1C DEB", "OBJECT_ID": "1999-025AYR", "EPOCH": "2025-12-19T10:28:48.530784", "MEAN_MOTION": 13.9760163, "ECCENTRICITY": 0.0096627, "INCLINATION": 99.3709, "RA_OF_ASC_NODE": 239.183, "ARG_OF_PERICENTER": 75.1557, "MEAN_ANOMALY": 286.0284, "EPHEMERIS_TYPE": 0, "CLASSIFICATION_TYPE": "U", "NORAD_CAT_ID": 30903, "ELEMENT_SET_NO": 999, "REV_AT_EPOCH": 68798, "BSTAR": -3.3732e-05, "MEAN_MOTION_DOT": -9.5e-07, "MEAN_MOTION_DDOT": 0}, "tle": {"line1": "1 30903U 99025AYR 25353.43667281 -.00000095  00000+0 -33732-4 0  9992", "line2": "2 30903  99.3709 239.1830 0096627  75.1557 286.0284 13.97601630687984"}}, "geometry": {"type": "Point", "coordinates": [-119.6954966706433, 14.56353836853379]}}, {"type": "Feature", "properties": {"norad_id": 30905, "name": "FENGYUN 1C DEB", "group": "fengyun-1c-debris", "lat": 30.813643188861153, "lon": 66.99770723251211, "alt_km": 792.6591221466933, "timestamp": "2025-12-22T22:44:21.254912+00:00", "meta": {"OBJECT_NAME": "FENGYUN 1C DEB", "OBJECT_ID": "1999-025AYT", "EPOCH": "2025-12-19T23:27:42.496416", "MEAN_MOTION": 14.17868833, "ECCENTRICITY": 0.00564293, "INCLINATION": 98.8891, "RA_OF_ASC_NODE": 69.3817, "ARG_OF_PERICENTER": 60.2635, "MEAN_ANOMALY": 300.4138, "EPHEMERIS_TYPE": 0, "CLASSIFICATION_TYPE": "U", "NORAD_CAT_ID": 30905, "ELEMENT_SET_NO": 999, "REV_AT_EPOCH": 96225, "BSTAR": 0.00069884909, "MEAN_MOTION_DOT": 1.406e-05, "MEAN_MOTION_DDOT": 0}, "tle": {"line1": "1 30905U 99025AYT 25353.97757519  .00001406  00000+0  69885-3 0  9999", "line2": "2 30905  98.8891  69.3817 0056429  60.2635 300.4138 14.17868833962256"}}, "geometry": {"type": "Point", "coordinates": [66.99770723251211, 30.813643188861153]}}, {"type": "Feature", "properties": {"norad_id": 30907, "name": "FENGYUN 1C DEB", "group": "fengyun-1c-debris", "lat": -64.60713613028553, "lon": 176.46690827892124, "alt_km": 878.4223760744235, "timestamp": "2025-12-22T22:44:21.254932+00:00", "meta": {"OBJECT_NAME": "FENGYUN 1C DEB", "OBJECT_ID": "1999-025AYV", "EPOCH": "2025-12-17T21:06:12.131712", "MEAN_MOTION": 14.15106189, "ECCENTRICITY": 0.00565923, "INCLINATION": 99.9513, "RA_OF_ASC_NODE": 12.5269, "ARG_OF_PERICENTER": 124.1859, "MEAN_ANOMALY": 236.4694, "EPHEMERIS_TYPE": 0, "CLASSIFICATION_TYPE": "U", "NORAD_CAT_ID": 30907, "ELEMENT_SET_NO": 999, "REV_AT_EPOCH": 1622, "BSTAR": 0.00072022378, "MEAN_MOTION_DOT": 1.366e-05, "MEAN_MOTION_DDOT": 0}, "tle": {"line1": "1 30907U 99025AYV 25351.87930708  .00001366  00000+0  72022-3 0  9993", "line2": "2 30907  99.9513  12.5269 0056592 124.1859 236.4694 14.15106189 16220"}}, "geometry": {"type": "Point", "coordinates": [176.46690827892124, -64.60713613028553]}}, {"type": "Feature", "properties": {"norad_id": 30912, "name": "FENGYUN 1C DEB", "group": "fengyun-1c-debris", "lat": 55.792594511505605, "lon": -173.85710748249934, "alt_km": 552.9113953447404, "timestamp": "2025-12-22T22:44:21.254944+00:00", "meta": {"OBJECT_NAME": "FENGYUN 1C DEB", "OBJECT_ID": "1999-025AZA", "EPOCH": "2025-12-22T12:48:52.193088", "MEAN_MOTION": 14.89603163, "ECCENTRICITY": 0.00592588, "INCLINATION": 98.9956, "RA_OF_ASC_NODE": 199.1488, "ARG_OF_PERICENTER": 66.8752, "MEAN_ANOMALY": 293.8692, "EPHEMERIS_TYPE": 0, "CLASSIFICATION_TYPE": "U", "NORAD_CAT_ID": 30912, "ELEMENT_SET_NO": 999, "REV_AT_EPOCH": 99550, "BSTAR": 0.0013459954, "MEAN_MOTION_DOT": 0.00013232, "MEAN_MOTION_DDOT": 0}, "tle": {"line1": "1 30912U 99025AZA 25356.53393742  .00013232  00000+0  13460-2 0  9993", "line2": "2 30912  98.9956 199.1488 0059258  66.8752 293.8692 14.89603163995504"}}, "geometry": {"type": "Point", "coordinates": [-173.85710748249934, 55.792594511505605]}}, {"type": "Feature", "properties": {"norad_id": 30913, "name": "FENGYUN 1C DEB", "group": "fengyun-1c-debris", "lat": 0.8790944802419084, "lon": 23.389710218110444, "alt_km": 910.668510232872, "timestamp": "2025-12-22T22:44:21.254954+00:00", "meta": {"OBJECT_NAME": "FENGYUN 1C DEB", "OBJECT_ID": "1999-025AZB", "EPOCH": "2025-12-21T12:33:04.647744", "MEAN_MOTION": 14.04963939, "ECCENTRICITY": 0.0048807, "INCLINATION": 98.7448, "RA_OF_ASC_NODE": 22.1521, "ARG_OF_PERICENTER": 157.0422, "MEAN_ANOMALY": 203.2942, "EPHEMERIS_TYPE": 0, "CLASSIFICATION_TYPE": "U", "NORAD_CAT_ID": 30913, "ELEMENT_SET_NO": 999, "REV_AT_EPOCH": 96041, "BSTAR": 0.00052405, "MEAN_MOTION_DOT": 8.1e-06, "MEAN_MOTION_DDOT": 0}, "tle": {"line1": "1 30913U 99025AZB 25355.52297046  .00000810  00000+0  52405-3 0  9993", "line2": "2 30913  98.7448  22.1521 0048807 157.0422 203.2942 14.04963939960419"}}, "geometry": {"type": "Point", "coordinates": [23.389710218110444, 0.8790944802419084]}}]}